GLOBALSTAR M001         
1 25162U 98008A   24245.51510924 -.00000046  00000+0  39030-3 0  9993
2 25162  52.0026  93.4166 0002036  26.7288 344.5260 12.38193193207953
GLOBALSTAR M004         
1 25163U 98008B   24245.64911755 -.00000069  00000+0  19242-3 0  9993
2 25163  51.9978 214.3970 0003238  13.2535 158.1469 12.63370027225216
GLOBALSTAR M002         
1 25164U 98008C   24245.44212449 -.00000058  00000+0  36559-3 0  9994
2 25164  51.9979 244.1828 0001420 339.9637  20.1127 11.61503558150516
GLOBALSTAR M003         
1 25165U 98008D   24245.42608309  .00000056  00000+0  15509-2 0  9995
2 25165  51.9904 248.2651 0008138  73.6754  74.4422 12.12032382198206
GLOBALSTAR M014         
1 25306U 98023A   24245.55323609 -.00000085  00000+0 -14807-3 0  9995
2 25306  51.9824 173.1957 0000475 157.4407  13.5538 11.65470296157508
GLOBALSTAR M006         
1 25307U 98023B   24245.63591215 -.00000079  00000+0 -60378-4 0  9993
2 25307  51.9910 214.6755 0003843 308.5651 222.4301 11.58165372183397
GLOBALSTAR M015         
1 25308U 98023C   24245.56515042 -.00000020  00000+0  12111-2 0  9995
2 25308  51.9827 300.0996 0012358 281.9745 248.2856 11.48849713161283
GLOBALSTAR M008         
1 25309U 98023D   24245.45798765 -.00000052  00000+0  34432-3 0  9995
2 25309  51.9985 315.1453 0002083 284.7000  88.5241 12.36047839202144
